from .db_utils import exec_commit
from skyfield.api import load, EarthSatellite
from sgp4 import exporter

def propagate_tles() -> None:
    max_days = 1.0
    file_name = 'stations.txt'

    url = 'http://celestrak.com/NORAD/elements/stations.txt'

    satellites = load.tle_file(url)

    print("total satellites: ", len(satellites))

    for satellite in satellites:
        print(satellite.name, satellite.model)
        raw_tle = exporter.export_tle(satellite.model)
        print(raw_tle)
        line_1 = raw_tle[0]
        line_2 = raw_tle[1]
        tle_dict = {
            "sat_id": satellite.model.satnum,
            "sat_name": satellite.name,
            "line_1": line_1,
            "line_2": line_2,
            "source": 'CelesTrak'
        }

        insert_sql = """
            INSERT INTO tles(satellite_id, satellite_name, line1, line2, source)
            VALUES (%(sat_id)s, %(sat_name)s, %(line_1)s, %(line_2)s, %(source)s)
            ON CONFLICT(satellite_id)
            DO UPDATE SET 
                inserted_at = NOW();
        """
        exec_commit(insert_sql, tle_dict)

    print("Insertion Complete")


"""
ISS (ZARYA)             
1 25544U 98067A   26111.74820810  .00009534  00000+0  18169-3 0  9999
2 25544  51.6323 219.4368 0006711 334.6967  25.3692 15.48877266563003
POISK                   
1 36086U 09060A   26111.74820810  .00009534  00000+0  18169-3 0  9997
2 36086  51.6323 219.4368 0006711 334.6967  25.3692 15.48877266562948
CSS (TIANHE)            
1 48274U 21035A   26111.88058793  .00024222  00000+0  26437-3 0  9991
2 48274  41.4677 304.9452 0006589 251.1279 108.8847 15.62764680284362
ISS (NAUKA)             
1 49044U 21066A   26111.74820810  .00009534  00000+0  18169-3 0  9995
2 49044  51.6323 219.4368 0006711 334.6967  25.3692 15.48877266562980
FREGAT DEB              
1 49271U 11037PF  26111.21656224  .00003101  00000+0  47935-2 0  9998
2 49271  51.6429 173.0397 0943553 156.8872 207.7485 12.41014465217975
CSS (WENTIAN)           
1 53239U 22085A   26111.68920682  .00043157  00000+0  46845-3 0  9990
2 53239  41.4673 306.1165 0005248 250.5621 109.4652 15.62693676284676
CSS (MENGTIAN)          
1 54216U 22143A   26111.88058793  .00024222  00000+0  26437-3 0  9995
2 54216  41.4677 304.9452 0006589 251.1279 108.8847 15.62764680284376
TIANZHOU-9              
1 64786U 25149A   26111.88058793  .00024222  00000+0  26437-3 0  9997
2 64786  41.4677 304.9452 0006589 251.1279 108.8847 15.62764680284379
HRC MONOBLOCK CAMERA    
1 66052U 98067XR  26111.55822406  .00052279  00000+0  48530-3 0  9999
2 66052  51.6257 208.4044 0004495 315.1253  44.9379 15.66906404 29100
HTV-X1                  
1 66174U 25241A   26111.55778363  .00004408  00000+0  14893-3 0  9996
2 66174  51.6361 226.3273 0007771 338.8494  21.2165 15.32714281 27510
SZ-21 MODULE            
1 66515U 25246C   26111.81188786  .00035741  00000+0  26784-3 0  9999
2 66515  41.4737 297.2219 0004343 305.2560  54.7877 15.71885308 24851
SHENZHOU-22             
1 66645U 25272A   26111.88058793  .00024222  00000+0  26437-3 0  9990
2 66645  41.4677 304.9452 0006589 251.1279 108.8847 15.62764680284375
SOYUZ-MS 28             
1 66664U 25275A   26111.74820810  .00009534  00000+0  18169-3 0  9998
2 66664  51.6323 219.4368 0006711 334.6967  25.3692 15.48877266563225
DUPLEX                  
1 66906U 98067XS  26111.76396370  .00029074  00000+0  37245-3 0  9994
2 66906  51.6276 213.5422 0004421 325.7792  34.2916 15.58923763 21840
ISS OBJECT XT           
1 66907U 98067XT  26110.56491386  .00342383  54212-4  11379-2 0  9994
2 66907  51.6192 209.1860 0011710 337.8574  22.1924 15.89658474 21793
ISS OBJECT XU           
1 66908U 98067XU  26110.99509683  .00476464  97406-4  15071-2 0  9995
2 66908  51.6197 206.8010 0011661 338.6358  21.4160 15.90584480 21863
SILVERSAT               
1 66909U 98067XV  26111.41676986  .02238858  60623-2  17497-2 0  9993
2 66909  51.6081 201.2837 0013138 340.8561  19.1960 16.15331909 21972
ISS OBJECT XW           
1 66910U 98067XW  26110.54627720  .00262547  00000+0  10336-2 0  9995
2 66910  51.6185 209.8088 0010827 332.6022  27.4409 15.85521877 21784
ISS OBJECT XY           
1 66912U 98067XY  26110.57540914  .00114465  00000+0  81724-3 0  9994
2 66912  51.6234 213.8212 0007338 328.9976  31.0588 15.72889119 21729
KNACKSAT-2              
1 67683U 98067XZ  26111.30918558  .00041155  00000+0  59840-3 0  9994
2 67683  51.6303 219.5073 0011977 346.8750  13.1928 15.55273526 11417
CORAL                   
1 67684U 98067YA  26111.60756476  .00084620  00000+0  94597-3 0  9999
2 67684  51.6276 216.2437 0015784 340.8265  19.2133 15.61865265 11486
GXIBA-1                 
1 67685U 98067YB  26111.03211719  .00043678  00000+0  61634-3 0  9997
2 67685  51.6293 220.6569 0013875 342.9883  17.0642 15.56031272 11375
UITMSAT-2               
1 67686U 98067YC  26111.57638376  .00052850  00000+0  70302-3 0  9993
2 67686  51.6287 217.5437 0010869 325.3971  34.6312 15.57578897 11460
HMU-SAT2                
1 67687U 98067YD  26111.55529085  .00039493  00000+0  56528-3 0  9990
2 67687  51.6319 218.1564 0010161 326.4092  33.6254 15.55743238 11371
LEOPARD                 
1 67688U 98067YE  26111.01405438  .00048143  00000+0  65933-3 0  9999
2 67688  51.6305 220.5395 0010493 323.1792  36.8478 15.56843109 11298
CREW DRAGON 12          
1 67796U 26031A   26111.74820810  .00009534  00000+0  18169-3 0  9996
2 67796  51.6323 219.4368 0006711 334.6967  25.3692 15.48877266563109
PROGRESS-MS 33          
1 68319U 26058A   26111.74820810  .00009534  00000+0  18169-3 0  9997
2 68319  51.6323 219.4368 0006711 334.6967  25.3692 15.48877266  4617
CYGNUS NG-24            
1 68689U 26079A   26111.49012659  .00009217  00000+0  17597-3 0  9998
2 68689  51.6324 220.7136 0006728 333.7588  26.3059 15.48871312  1535
"""